TOMORROW-S2             
1 60485U 24149T   26068.75188364  .00008133  00000+0  27683-3 0  9990
2 60485  97.3857 150.0385 0001648 234.3331 125.7757 15.30674935 86869
STARLINK-36198          
1 67167U 25303E   26068.66670139  .00040204  00000+0  14633-2 0  9998
2 67167  43.0009 311.2223 0001517 270.5874 221.4743 15.27564344  5814
